[{"OBJECT_NAME":"STARLINK-5756","OBJECT_ID":"2023-020AF","EPOCH":"2026-03-08T19:48:13.186368","MEAN_MOTION":15.02541545,"ECCENTRICITY":0.00013445,"INCLINATION":43.0045,"RA_OF_ASC_NODE":356.824,"ARG_OF_PERICENTER":263.2487,"MEAN_ANOMALY":96.8202,"EPHEMERIS_TYPE":0,"CLASSIFICATION_TYPE":"U","NORAD_CAT_ID":55598,"ELEMENT_SET_NO":999,"REV_AT_EPOCH":16893,"BSTAR":-3.2038206e-5,"MEAN_MOTION_DOT":-6.36e-6,"MEAN_MOTION_DDOT":0},{"OBJECT_NAME":"DELTA 1 DEB","OBJECT_ID":"1984-088G","EPOCH":"2026-03-08T09:15:52.675776","MEAN_MOTION":11.22084929,"ECCENTRICITY":0.17879711,"INCLINATION":28.736,"RA_OF_ASC_NODE":131.5031,"ARG_OF_PERICENTER":348.7228,"MEAN_ANOMALY":7.7805,"EPHEMERIS_TYPE":0,"CLASSIFICATION_TYPE":"U","NORAD_CAT_ID":19008,"ELEMENT_SET_NO":999,"REV_AT_EPOCH":55810,"BSTAR":0.0010315436,"MEAN_MOTION_DOT":1.852e-5,"MEAN_MOTION_DDOT":0}]
